{
  "type": "FeatureCollection",
  "features": [
    {
      "type": "Feature",
      "properties": {
        "norad_id": 24876,
        "name": "GPS BIIR-2  (PRN 13)",
        "group": "gnss",
        "lat": 55.15653062836088,
        "lon": -177.05992233097422,
        "alt_km": 19943.91544988289,
        "timestamp": "2025-12-02T08:59:32.955855+00:00",
        "meta_object_name": "GPS BIIR-2  (PRN 13)",
        "meta_object_id": "1997-035A",
        "meta_epoch": "2025-12-01T18:20:01.305600",
        "meta_mean_motion": 2.00563436,
        "meta_eccentricity": 0.0096658,
        "meta_inclination": 55.8898,
        "meta_ra_of_asc_node": 106.2982,
        "meta_arg_of_pericenter": 57.0223,
        "meta_mean_anomaly": 303.8787,
        "meta_ephemeris_type": 0,
        "meta_classification_type": "U",
        "meta_norad_cat_id": 24876,
        "meta_element_set_no": 999,
        "meta_rev_at_epoch": 20799,
        "meta_bstar": 0,
        "meta_mean_motion_dot": 3.5e-07,
        "meta_mean_motion_ddot": 0,
        "tle_line1": "1 24876U 97035A   25335.76390400  .00000035  00000+0  00000+0 0  9994",
        "tle_line2": "2 24876  55.8898 106.2982 0096658  57.0223 303.8787  2.00563436207995"
      },
      "geometry": {
        "type": "Point",
        "coordinates": [
          -177.05992233097422,
          55.15653062836088
        ]
      }
    },
    {
      "type": "Feature",
      "properties": {
        "norad_id": 26360,
        "name": "GPS BIIR-4  (PRN 20)",
        "group": "gnss",
        "lat": 5.500197774625897,
        "lon": -156.58488369126542,
        "alt_km": 20141.72682372369,
        "timestamp": "2025-12-02T08:59:32.955903+00:00",
        "meta_object_name": "GPS BIIR-4  (PRN 20)",
        "meta_object_id": "2000-025A",
        "meta_epoch": "2025-12-02T03:30:27.357408",
        "meta_mean_motion": 2.00568432,
        "meta_eccentricity": 0.0038771,
        "meta_inclination": 55.0389,
        "meta_ra_of_asc_node": 27.2666,
        "meta_arg_of_pericenter": 240.9431,
        "meta_mean_anomaly": 127.7379,
        "meta_ephemeris_type": 0,
        "meta_classification_type": "U",
        "meta_norad_cat_id": 26360,
        "meta_element_set_no": 999,
        "meta_rev_at_epoch": 18732,
        "meta_bstar": 0,
        "meta_mean_motion_dot": -6.9e-07,
        "meta_mean_motion_ddot": 0,
        "tle_line1": "1 26360U 00025A   25336.14614997 -.00000069  00000+0  00000+0 0  9998",
        "tle_line2": "2 26360  55.0389  27.2666 0038771 240.9431 127.7379  2.00568432187324"
      },
      "geometry": {
        "type": "Point",
        "coordinates": [
          -156.58488369126542,
          5.500197774625897
        ]
      }
    },
    {
      "type": "Feature",
      "properties": {
        "norad_id": 26407,
        "name": "GPS BIIR-5  (PRN 22)",
        "group": "gnss",
        "lat": 11.88080120470949,
        "lon": -128.51626498033121,
        "alt_km": 20077.960264562982,
        "timestamp": "2025-12-02T08:59:32.955921+00:00",
        "meta_object_name": "GPS BIIR-5  (PRN 22)",
        "meta_object_id": "2000-040A",
        "meta_epoch": "2025-12-01T02:24:31.416768",
        "meta_mean_motion": 2.00567692,
        "meta_eccentricity": 0.01266559,
        "meta_inclination": 54.8937,
        "meta_ra_of_asc_node": 223.032,
        "meta_arg_of_pericenter": 301.5907,
        "meta_mean_anomaly": 231.5341,
        "meta_ephemeris_type": 0,
        "meta_classification_type": "U",
        "meta_norad_cat_id": 26407,
        "meta_element_set_no": 999,
        "meta_rev_at_epoch": 18597,
        "meta_bstar": 0,
        "meta_mean_motion_dot": 4.5e-07,
        "meta_mean_motion_ddot": 0,
        "tle_line1": "1 26407U 00040A   25335.10036362  .00000045  00000+0  00000+0 0  9999",
        "tle_line2": "2 26407  54.8937 223.0320 0126655 301.5907 231.5341  2.00567692185975"
      },
      "geometry": {
        "type": "Point",
        "coordinates": [
          -128.51626498033121,
          11.88080120470949
        ]
      }
    },
    {
      "type": "Feature",
      "properties": {
        "norad_id": 27663,
        "name": "GPS BIIR-8  (PRN 16)",
        "group": "gnss",
        "lat": 23.639924728089223,
        "lon": 24.905722683693924,
        "alt_km": 20234.285464362194,
        "timestamp": "2025-12-02T08:59:32.955936+00:00",
        "meta_object_name": "GPS BIIR-8  (PRN 16)",
        "meta_object_id": "2003-005A",
        "meta_epoch": "2025-12-01T05:43:03.661248",
        "meta_mean_motion": 2.00571434,
        "meta_eccentricity": 0.0146981,
        "meta_inclination": 54.9264,
        "meta_ra_of_asc_node": 222.8358,
        "meta_arg_of_pericenter": 51.639,
        "meta_mean_anomaly": 356.7865,
        "meta_ephemeris_type": 0,
        "meta_classification_type": "U",
        "meta_norad_cat_id": 27663,
        "meta_element_set_no": 999,
        "meta_rev_at_epoch": 16734,
        "meta_bstar": 0,
        "meta_mean_motion_dot": 4.7e-07,
        "meta_mean_motion_ddot": 0,
        "tle_line1": "1 27663U 03005A   25335.23823682  .00000047  00000+0  00000+0 0  9993",
        "tle_line2": "2 27663  54.9264 222.8358 0146981  51.6390 356.7865  2.00571434167346"
      },
      "geometry": {
        "type": "Point",
        "coordinates": [
          24.905722683693924,
          23.639924728089223
        ]
      }
    },
    {
      "type": "Feature",
      "properties": {
        "norad_id": 28190,
        "name": "GPS BIIR-11 (PRN 19)",
        "group": "gnss",
        "lat": -39.564679077709435,
        "lon": -111.72489849190183,
        "alt_km": 20410.88403915834,
        "timestamp": "2025-12-02T08:59:32.955950+00:00",
        "meta_object_name": "GPS BIIR-11 (PRN 19)",
        "meta_object_id": "2004-009A",
        "meta_epoch": "2025-11-26T05:14:39.537024",
        "meta_mean_motion": 2.00561394,
        "meta_eccentricity": 0.01080929,
        "meta_inclination": 55.0011,
        "meta_ra_of_asc_node": 283.885,
        "meta_arg_of_pericenter": 167.3745,
        "meta_mean_anomaly": 15.773,
        "meta_ephemeris_type": 0,
        "meta_classification_type": "U",
        "meta_norad_cat_id": 28190,
        "meta_element_set_no": 999,
        "meta_rev_at_epoch": 15887,
        "meta_bstar": 0,
        "meta_mean_motion_dot": -2.4e-07,
        "meta_mean_motion_ddot": 0,
        "tle_line1": "1 28190U 04009A   25330.21851316 -.00000024  00000+0  00000+0 0  9998",
        "tle_line2": "2 28190  55.0011 283.8850 0108092 167.3745  15.7730  2.00561394158873"
      },
      "geometry": {
        "type": "Point",
        "coordinates": [
          -111.72489849190183,
          -39.564679077709435
        ]
      }
    },
    {
      "type": "Feature",
      "properties": {
        "norad_id": 28474,
        "name": "GPS BIIR-13 (PRN 02)",
        "group": "gnss",
        "lat": 7.931282955269828,
        "lon": -21.628482202161262,
        "alt_km": 19955.860414215596,
        "timestamp": "2025-12-02T08:59:32.955964+00:00",
        "meta_object_name": "GPS BIIR-13 (PRN 02)",
        "meta_object_id": "2004-045A",
        "meta_epoch": "2025-12-01T07:58:00.952608",
        "meta_mean_motion": 2.00568823,
        "meta_eccentricity": 0.01705095,
        "meta_inclination": 55.2462,
        "meta_ra_of_asc_node": 332.865,
        "meta_arg_of_pericenter": 308.7554,
        "meta_mean_anomaly": 26.3129,
        "meta_ephemeris_type": 0,
        "meta_classification_type": "U",
        "meta_norad_cat_id": 28474,
        "meta_element_set_no": 999,
        "meta_rev_at_epoch": 15445,
        "meta_bstar": 0,
        "meta_mean_motion_dot": -5.6e-07,
        "meta_mean_motion_ddot": 0,
        "tle_line1": "1 28474U 04045A   25335.33195547 -.00000056  00000+0  00000+0 0  9993",
        "tle_line2": "2 28474  55.2462 332.8650 0170509 308.7554  26.3129  2.00568823154458"
      },
      "geometry": {
        "type": "Point",
        "coordinates": [
          -21.628482202161262,
          7.931282955269828
        ]
      }
    },
    {
      "type": "Feature",
      "properties": {
        "norad_id": 28874,
        "name": "GPS BIIRM-1 (PRN 17)",
        "group": "gnss",
        "lat": -26.075154290240064,
        "lon": -98.90100198279345,
        "alt_km": 19892.977059263983,
        "timestamp": "2025-12-02T08:59:32.955977+00:00",
        "meta_object_name": "GPS BIIRM-1 (PRN 17)",
        "meta_object_id": "2005-038A",
        "meta_epoch": "2025-11-30T16:16:45.058656",
        "meta_mean_motion": 2.00548966,
        "meta_eccentricity": 0.01328775,
        "meta_inclination": 55.0429,
        "meta_ra_of_asc_node": 281.1867,
        "meta_arg_of_pericenter": 293.3584,
        "meta_mean_anomaly": 248.5646,
        "meta_ephemeris_type": 0,
        "meta_classification_type": "U",
        "meta_norad_cat_id": 28874,
        "meta_element_set_no": 999,
        "meta_rev_at_epoch": 14785,
        "meta_bstar": 0,
        "meta_mean_motion_dot": -4.1e-07,
        "meta_mean_motion_ddot": 0,
        "tle_line1": "1 28874U 05038A   25334.67829929 -.00000041  00000+0  00000+0 0  9998",
        "tle_line2": "2 28874  55.0429 281.1867 0132877 293.3584 248.5646  2.00548966147851"
      },
      "geometry": {
        "type": "Point",
        "coordinates": [
          -98.90100198279345,
          -26.075154290240064
        ]
      }
    }
  ]
}